1 35682U 09041B 26162.11983891 .00000643 00000+0 10283-3 0 9994 
2 35682 98.0044 295.4445 0011746 90.9719 269.2836 14.75113880904207 
1 35931U 09051A 26162.26622753 .00000018 00000+0 38125-4 0 9997 
2 35931 98.2324 149.7083 0014788 254.1082 105.8455 13.99664637878503 
1 35946U 09055A 26162.24898007 .00000082 00000+0 41534-4 0 9991 
2 35946 98.4736 235.7803 0003383 229.1703 130.9191 14.37897632874794 
1 36036U 09059A 26162.14340483 .00000206 00000+0 79656-4 0 9999 
2 36036 98.4425 349.5670 0001322 88.8396 271.2944 14.39769237872586 
1 36110U 09069A 26162.19892483 .00000394 00000+0 61597-4 0 9993 
2 36110 98.0081 48.1028 0025871 60.2367 300.1412 14.78003647888745 
1 36605U 10030A 26160.28753286 .00000776 00000+0 40127-4 0 9997 
2 36605 97.4454 168.1075 0001902 90.0350 270.1102 15.19149708885449 
1 36795U 10035A 26162.31705434 .00000779 00000+0 11337-3 0 9993 
2 36795 97.9958 212.9042 0010721 203.4073 156.6651 14.78655054858982 
1 36834U 10038A 26162.30092029 .00001231 00000+0 14952-3 0 9998 
2 36834 97.8983 185.7522 0001627 90.8549 38.0193 14.85329489856333 
1 37216U 10060A 26162.30028251 .00000058 00000+0 13861-4 0 9999 
2 37216 97.8892 345.9858 0001433 79.4188 280.7187 14.82147759843695 
1 37387U 11015A 26162.24724891 .00000046 00000+0 41251-4 0 9996 
2 37387 98.7644 229.7299 0010121 274.6581 85.3441 14.21605130785330 
1 37781U 11043A 26162.28754420 -.00000042 00000+0 12116-5 0 9996 
2 37781 99.3397 165.0938 0006197 102.6627 257.5216 13.74458315745844 
1 37791U 11044D 26162.25250149 .00000620 00000+0 11594-3 0 9992 
2 37791 98.0568 253.7398 0019791 208.0607 236.5238 14.68161600792316 
1 37841U 11058D 26162.13554769 .00000354 00000+0 48274-4 0 9995 
2 37841 19.9714 96.0961 0011916 137.3112 254.6975 14.11574277756963 
1 38012U 11076F 26162.29835197 .00000163 00000+0 44970-4 0 9997 
2 38012 98.1973 237.4800 0001549 98.3830 343.2880 14.58567199771139 
1 38038U 11079A 26162.30627524 .00000293 00000+0 11052-3 0 9991 
2 38038 98.4072 229.7376 0005848 336.5234 111.7090 14.38210036758367 
1 38338U 12025B 26162.28453064 .00000347 00000+0 78159-4 0 9991 
2 38338 98.1175 119.8464 0006445 124.3436 235.8376 14.62200897750480 
1 38709U 12039C 26162.20225287 .00000081 00000+0 54524-4 0 9999 
2 38709 98.9770 279.4575 0010843 183.3852 176.7255 14.24982801721859 
1 38755U 12047A 26162.29811448 .00000145 00000+0 41119-4 0 9995 
2 38755 98.2119 229.6758 0001441 92.9597 267.1767 14.58559335732196 
1 39019U 12068A 26162.31702138 .00000100 00000+0 31231-4 0 9995 
2 39019 98.1944 237.4495 0001617 94.9175 265.2209 14.58556697719990 
1 39030U 12073A 26162.24886471 .00000496 00000+0 79747-4 0 9991 
2 39030 97.6829 359.9783 0001830 58.2976 301.8412 14.75536797723635 
1 39084U 13008A 26161.91306706 .00000265 00000+0 68989-4 0 9990 
2 39084 98.2302 232.1227 0001467 95.7003 264.4362 14.57114509696983 
1 39086U 13009A 26162.24496306 .00000082 00000+0 46256-4 0 9996 
2 39086 98.5557 348.8876 0001026 341.1912 18.9234 14.32854429694751 
1 39150U 13018A 26162.30278626 .00000116 00000+0 23906-4 0 9993 
2 39150 97.9093 234.4900 0015785 286.9972 72.9508 14.76530333707378 
1 39160U 13021B 26162.21459602 .00000588 00000+0 11857-3 0 9997 
2 39160 97.9084 215.8601 0001653 89.6393 270.5000 14.64851176699410 
1 39227U 13042A 26162.31325201 .00001146 00000+0 86275-4 0 9990 
2 39227 97.6218 349.0967 0004790 136.4943 223.6662 15.04475652702977 
1 39418U 13066C 26162.10654730 .00002391 00000+0 13867-3 0 9996 
2 39418 97.3821 211.6972 0020642 339.5944 20.4461 15.12941929687568 
1 39419U 13066D 26162.23992449 .00003140 00000+0 19602-3 0 9999 
2 39419 97.4567 152.5398 0012737 58.8280 301.4196 15.10139613685496 
1 39574U 14009C 26162.25239421 .00007014 00000+0 15581-3 0 9991 
2 39574 64.9723 328.0014 0012147 249.2385 110.7454 15.44436991696893 
1 39634U 14016A 26161.51035463 .00000288 00000+0 70740-4 0 9999 
2 39634 98.1783 169.1406 0001436 80.9924 279.1438 14.59199013649045 
1 39731U 14024A 26162.26276579 -.00000001 00000+0 12706-4 0 9996 
2 39731 98.3204 234.8571 0001436 76.6260 283.5090 14.42077418637700 
