OBJECT_NAME,OBJECT_ID,EPOCH,MEAN_MOTION,ECCENTRICITY,INCLINATION,RA_OF_ASC_NODE,ARG_OF_PERICENTER,MEAN_ANOMALY,EPHEMERIS_TYPE,CLASSIFICATION_TYPE,NORAD_CAT_ID,ELEMENT_SET_NO,REV_AT_EPOCH,BSTAR,MEAN_MOTION_DOT,MEAN_MOTION_DDOT
DUBAISAT-1,2009-041B,2026-06-11T02:52:34.081824,14.75113880,.00117468,98.0044,295.4445,90.9719,269.2836,0,U,35682,999,90420,.10283213E-3,.643E-5,0
OCEANSAT-2,2009-051A,2026-06-11T06:23:22.058592,13.99664637,.00147883,98.2324,149.7083,254.1082,105.8455,0,U,35931,999,87850,.38124977E-4,.18E-6,0
WORLDVIEW-2 (WV-2),2009-055A,2026-06-11T05:58:31.878048,14.37897632,.0003383,98.4736,235.7803,229.1703,130.9191,0,U,35946,999,87479,.41533728E-4,.82E-6,0
SMOS,2009-059A,2026-06-11T03:26:30.177312,14.39769237,.00013228,98.4425,349.5670,88.8396,271.2944,0,U,36036,999,87258,.79656031E-4,.206E-5,0
YAOGAN-7,2009-069A,2026-06-11T04:46:27.105312,14.78003647,.00258711,98.0081,48.1028,60.2367,300.1412,0,U,36110,999,88874,.6159657E-4,.394E-5,0
TANDEM-X,2010-030A,2026-06-09T06:54:02.839104,15.19149708,.00019024,97.4454,168.1075,90.0350,270.1102,0,U,36605,999,88544,.40127109E-4,.776E-5,0
CARTOSAT-2B,2010-035A,2026-06-11T07:36:33.494976,14.78655054,.00107213,97.9958,212.9042,203.4073,156.6651,0,U,36795,999,85898,.11336522E-3,.779E-5,0
YAOGAN-10,2010-038A,2026-06-11T07:13:19.513056,14.85329489,.00016274,97.8983,185.7522,90.8549,38.0193,0,U,36834,999,85633,.14951626E-3,.1231E-4,0
COSMO-SKYMED 4,2010-060A,2026-06-11T07:12:24.408864,14.82147759,.00014337,97.8892,345.9858,79.4188,280.7187,0,U,37216,999,84369,.13860994E-4,.58E-6,0
RESOURCESAT-2,2011-015A,2026-06-11T05:56:02.305824,14.21605130,.00101211,98.7644,229.7299,274.6581,85.3441,0,U,37387,999,78533,.41250575E-4,.46E-6,0
HAIYANG-2A,2011-043A,2026-06-11T06:54:03.818880,13.74458315,.00061979,99.3397,165.0938,102.6627,257.5216,0,U,37781,999,74584,.1211624E-5,-.42E-6,0
RASAT,2011-044D,2026-06-11T06:03:36.128736,14.68161600,.00197912,98.0568,253.7398,208.0607,236.5238,0,U,37791,999,79231,.11594346E-3,.62E-5,0
SRMSAT,2011-058D,2026-06-11T03:15:11.320416,14.11574277,.00119167,19.9714,96.0961,137.3112,254.6975,0,U,37841,999,75696,.482744E-4,.354E-5,0
PLEIADES 1A,2011-076F,2026-06-11T07:09:37.610208,14.58567199,.00015495,98.1973,237.4800,98.3830,343.2880,0,U,38012,999,77113,.44970209E-4,.163E-5,0
ZIYUAN 1-02C (ZY 1-02C),2011-079A,2026-06-11T07:21:02.180736,14.38210036,.00058487,98.4072,229.7376,336.5234,111.7090,0,U,38038,999,75836,.11051982E-3,.293E-5,0
ARIRANG-3 (KOMPSAT-3),2012-025B,2026-06-11T06:49:43.447296,14.62200897,.00064451,98.1175,119.8464,124.3436,235.8376,0,U,38338,999,75048,.78158657E-4,.347E-5,0
EXACTVIEW-1 (ADS-1B),2012-039C,2026-06-11T04:51:14.647968,14.24982801,.00108432,98.9770,279.4575,183.3852,176.7255,0,U,38709,999,72185,.54524463E-4,.81E-6,0
SPOT 6,2012-047A,2026-06-11T07:09:17.091072,14.58559335,.00014412,98.2119,229.6758,92.9597,267.1767,0,U,38755,999,73219,.41119017E-4,.145E-5,0
PLEIADES 1B,2012-068A,2026-06-11T07:36:30.647232,14.58556697,.00016175,98.1944,237.4495,94.9175,265.2209,0,U,39019,999,71999,.31230506E-4,.1E-5,0
GOKTURK 2,2012-073A,2026-06-11T05:58:21.910944,14.75536797,.00018304,97.6829,359.9783,58.2976,301.8412,0,U,39030,999,72363,.79747438E-4,.496E-5,0
LANDSAT 8,2013-008A,2026-06-10T21:54:48.993984,14.57114509,.00014672,98.2302,232.1227,95.7003,264.4362,0,U,39084,999,69698,.68989245E-4,.265E-5,0
SARAL,2013-009A,2026-06-11T05:52:44.808384,14.32854429,.00010269,98.5557,348.8876,341.1912,18.9234,0,U,39086,999,69475,.46255952E-4,.82E-6,0
GAOFEN-1,2013-018A,2026-06-11T07:16:00.732864,14.76530333,.00157859,97.9093,234.4900,286.9972,72.9508,0,U,39150,999,70737,.23905961E-4,.116E-5,0
VNREDSAT 1,2013-021B,2026-06-11T05:09:01.096128,14.64851176,.00016532,97.9084,215.8601,89.6393,270.5000,0,U,39160,999,69941,.11856516E-3,.588E-5,0
ARIRANG-5 (KOMPSAT-5),2013-042A,2026-06-11T07:31:04.973664,15.04475652,.00047903,97.6218,349.0967,136.4943,223.6662,0,U,39227,999,70297,.86275269E-4,.1146E-4,0
SKYSAT-A,2013-066C,2026-06-11T02:33:25.686720,15.12941929,.00206429,97.3821,211.6972,339.5944,20.4461,0,U,39418,999,68756,.13866971E-3,.2391E-4,0
DUBAISAT-2,2013-066D,2026-06-11T05:45:29.475936,15.10139613,.00127371,97.4567,152.5398,58.8280,301.4196,0,U,39419,999,68549,.19602048E-3,.314E-4,0
GPM-CORE,2014-009C,2026-06-11T06:03:26.859744,15.44436991,.00121474,64.9723,328.0014,249.2385,110.7454,0,U,39574,999,69689,.15581205E-3,.7014E-4,0
SENTINEL-1A,2014-016A,2026-06-10T12:14:54.640032,14.59199013,.00014362,98.1783,169.1406,80.9924,279.1438,0,U,39634,999,64904,.70739944E-4,.288E-5,0
KAZEOSAT 1,2014-024A,2026-06-11T06:18:22.964256,14.42077418,.00014363,98.3204,234.8571,76.6260,283.5090,0,U,39731,999,63770,.12705847E-4,-.1E-7,0
